[{"OBJECT_NAME":"LEMUR-2-AMANDA-SVANTE","OBJECT_ID":"2021-034B","EPOCH":"2026-03-09T18:37:58.823328","MEAN_MOTION":15.28469003,"ECCENTRICITY":0.00027027,"INCLINATION":97.5829,"RA_OF_ASC_NODE":144.8625,"ARG_OF_PERICENTER":205.4721,"MEAN_ANOMALY":154.6385,"EPHEMERIS_TYPE":0,"CLASSIFICATION_TYPE":"U","NORAD_CAT_ID":48269,"ELEMENT_SET_NO":999,"REV_AT_EPOCH":26584,"BSTAR":0.0011134246,"MEAN_MOTION_DOT":0.00030872,"MEAN_MOTION_DDOT":0},{"OBJECT_NAME":"STARLINK-30263","OBJECT_ID":"2023-122L","EPOCH":"2026-03-09T10:41:15.655776","MEAN_MOTION":15.267389,"ECCENTRICITY":0.00012868,"INCLINATION":43.0011,"RA_OF_ASC_NODE":93.5321,"ARG_OF_PERICENTER":265.2703,"MEAN_ANOMALY":94.8002,"EPHEMERIS_TYPE":0,"CLASSIFICATION_TYPE":"U","NORAD_CAT_ID":57642,"ELEMENT_SET_NO":999,"REV_AT_EPOCH":14217,"BSTAR":2.930359e-5,"MEAN_MOTION_DOT":5.26e-6,"MEAN_MOTION_DDOT":0}]
